[{"OBJECT_NAME":"ROADS 1","OBJECT_ID":"2025-135H","EPOCH":"2026-03-09T20:30:26.589888","MEAN_MOTION":15.21189252,"ECCENTRICITY":0.00052629,"INCLINATION":97.4546,"RA_OF_ASC_NODE":184.7054,"ARG_OF_PERICENTER":153.667,"MEAN_ANOMALY":206.4834,"EPHEMERIS_TYPE":0,"CLASSIFICATION_TYPE":"U","NORAD_CAT_ID":64535,"ELEMENT_SET_NO":999,"REV_AT_EPOCH":3975,"BSTAR":0.00040940157,"MEAN_MOTION_DOT":9.066e-5,"MEAN_MOTION_DDOT":0},{"OBJECT_NAME":"ASAP-S","OBJECT_ID":"2011-076G","EPOCH":"2026-03-09T17:04:01.263936","MEAN_MOTION":15.2280587,"ECCENTRICITY":0.00082377,"INCLINATION":98.0168,"RA_OF_ASC_NODE":352.0786,"ARG_OF_PERICENTER":129.3662,"MEAN_ANOMALY":230.8304,"EPHEMERIS_TYPE":0,"CLASSIFICATION_TYPE":"U","NORAD_CAT_ID":38013,"ELEMENT_SET_NO":999,"REV_AT_EPOCH":77768,"BSTAR":0.00058516402,"MEAN_MOTION_DOT":0.00013629,"MEAN_MOTION_DDOT":0}]
